0 COSMOS 252 DEB
1 18431U 68097EJ  13280.05015640  .00000198  00000-0  12359-3 0  1894
2 18431 062.3598 124.9841 0845502 265.2789 085.1279 13.15401306838009
0 COSMOS 252 DEB
1 18431U 68097EJ  13284.07916402  .00000466  00000-0  22986-3 0  1903
2 18431 062.3603 114.6675 0845661 266.1283 084.2747 13.15404137838535
0 COSMOS 252 DEB
1 18431U 68097EJ  13292.97334368  .00000587  00000-0  27724-3 0  1916
2 18431 062.3621 091.8814 0845773 268.0340 082.3713 13.15416577839708
